OBJECT_NAME,OBJECT_ID,EPOCH,MEAN_MOTION,ECCENTRICITY,INCLINATION,RA_OF_ASC_NODE,ARG_OF_PERICENTER,MEAN_ANOMALY,EPHEMERIS_TYPE,CLASSIFICATION_TYPE,NORAD_CAT_ID,ELEMENT_SET_NO,REV_AT_EPOCH,BSTAR,MEAN_MOTION_DOT,MEAN_MOTION_DDOT
ALOS-2,2014-029A,2026-07-09T06:07:21.931680,14.79473760,.00016267,97.9221,287.1037,92.9652,267.1746,0,U,39766,999,65484,.10497842E-3,.733E-5,0
KAZEOSAT 2,2014-033A,2026-07-09T07:46:37.172640,14.85497773,.00069988,97.5406,28.7655,242.5613,117.4892,0,U,40010,999,65224,.92669967E-4,.75E-5,0
HODOYOSHI-4,2014-033B,2026-07-09T06:57:52.475616,14.88180342,.00221944,97.5467,14.0470,230.1896,129.7368,0,U,40011,999,65209,.64597733E-4,.545E-5,0
DEIMOS-2,2014-033D,2026-07-09T06:55:57.295776,14.93788890,.00010992,97.5807,63.9988,82.4063,277.7282,0,U,40013,999,64102,.60285211E-4,.585E-5,0
HODOYOSHI-3,2014-033F,2026-07-08T22:38:13.245504,14.85429279,.00313255,97.6439,352.1110,283.5087,76.2639,0,U,40015,999,65085,.78533004E-4,.629E-5,0
SPOT 7,2014-034A,2026-07-09T07:16:52.983264,14.60978157,.00015389,98.0616,252.2245,98.1698,261.9678,0,U,40053,999,64036,.70116463E-4,.298E-5,0
SKYSAT-B,2014-037D,2026-07-09T07:33:51.208992,14.88083155,.00051028,98.3850,150.5437,192.3178,167.7912,0,U,40072,999,64925,.10665521E-3,.919E-5,0
WORLDVIEW-3 (WV-3),2014-048A,2026-07-09T06:25:42.289248,14.85058517,.00008299,97.8558,264.7954,164.3855,195.7385,0,U,40115,999,64518,.73602778E-4,.575E-5,0
GAOFEN-2,2014-049A,2026-07-09T08:07:15.320064,14.80924302,.00078683,98.0096,254.5237,151.6249,208.5393,0,U,40118,999,64251,.10014282E-3,.721E-5,0
YAOGAN-21,2014-053A,2026-07-09T07:38:42.578304,15.26706426,.00084271,97.1467,229.6068,27.3179,332.8502,0,U,40143,999,65833,.20755035E-3,.5387E-4,0
YAOGAN-22,2014-063A,2026-07-08T22:28:15.204576,13.15531434,.00067757,100.7753,341.5732,138.1586,222.0044,0,U,40275,999,56267,.46041652E-4,-.29E-6,0
ASNARO,2014-070A,2026-07-09T06:49:47.241984,15.19771787,.00067148,97.3442,265.8042,104.2560,255.9422,0,U,40298,999,64736,.24350452E-3,.5146E-4,0
YAOGAN-24,2014-072A,2026-07-09T07:34:19.123104,14.76112624,.0014126,98.1516,327.8417,188.6043,171.4926,0,U,40310,999,62698,-.188668E-5,-.66E-6,0
CBERS 4,2014-079A,2026-07-09T08:12:10.423584,14.35515531,.00010387,98.3519,246.4774,50.0564,310.0713,0,U,40336,999,60713,.73906695E-4,.17E-5,0
YAOGAN-26,2014-088A,2026-07-09T07:24:33.355296,15.48279933,.00028503,97.0649,190.0129,11.0805,349.0508,0,U,40362,999,64112,.43382567E-3,.22841E-3,0
SMAP,2015-003A,2026-07-09T07:14:58.141248,14.63386010,.00015494,98.1280,197.0836,96.8898,263.2480,0,U,40376,999,61085,.64423242E-4,.286E-5,0
KOMPSAT-3A,2015-014A,2026-07-09T06:09:05.579712,15.55168323,.00567521,97.6892,183.2500,96.5428,264.2290,0,U,40536,999,62524,.31919686E-3,.23057E-3,0
SENTINEL-2A,2015-028A,2026-07-09T07:30:07.236000,14.30813637,.0001291,98.5674,264.8498,93.8371,266.2960,0,U,40697,999,57689,-.79989302E-4,-.253E-5,0
GAOFEN-8,2015-030A,2026-07-09T06:48:06.387264,15.46779982,.00098515,97.6908,24.9918,113.7964,246.4318,0,U,40701,999,61486,.1838317E-3,.9128E-4,0
CARBONITE 1 (CBNT-1),2015-032D,2026-07-09T07:18:03.134880,14.83654132,.0013432,97.6523,7.4462,217.6133,142.4143,0,U,40718,999,59262,.86515933E-4,.664E-5,0
YAOGAN-27,2015-040A,2026-07-09T07:15:49.237344,13.16073452,.00083761,100.1169,175.7263,158.0658,202.0816,0,U,40878,999,52057,.11393711E-2,.39E-5,0
GAOFEN-9 01,2015-047A,2026-07-09T06:17:53.791296,14.82927790,.00287593,97.6271,224.9533,69.0450,291.3838,0,U,40894,999,58346,.94979181E-4,.725E-5,0
YAOGAN-28,2015-064A,2026-07-09T07:59:14.804736,15.27710913,.00120144,97.3095,328.1506,111.0613,249.1912,0,U,41026,999,59406,.17882463E-3,.4778E-4,0
YAOGAN-29,2015-069A,2026-07-09T07:22:22.893024,14.83104568,.00011896,98.0024,218.9741,21.6016,338.5248,0,U,41038,999,57390,.94298366E-4,.714E-5,0
KENT RIDGE 1,2015-077B,2026-07-09T00:50:03.577632,15.23261698,.00082225,14.9792,103.4855,188.2047,171.8141,0,U,41167,999,58443,.86582374E-4,.2877E-4,0
GAOFEN-4,2015-083A,2026-07-09T07:18:28.194336,1.00270249,.0004365,0.4109,83.8795,118.7598,299.9257,0,U,41194,999,3875,0,-.321E-5,0
JASON-3,2016-002A,2026-07-09T07:03:23.893056,12.87628365,.00082496,66.0418,79.3595,271.4583,88.5490,0,U,41240,999,49009,.15030456E-3,-.24E-6,0
SENTINEL-3A,2016-011A,2026-07-09T07:22:46.011072,14.26738722,.00013981,98.6239,257.3724,92.0212,268.1129,0,U,41335,999,54121,.3943632E-4,.52E-6,0
ZIYUAN 3-02 (ZY 3-02),2016-033A,2026-07-09T06:57:59.838624,15.21397268,.00134418,97.3828,265.6394,205.9322,154.1242,0,U,41556,999,56134,.17416875E-3,.3846E-4,0
CARTOSAT-2C,2016-040A,2026-07-09T07:44:45.686400,15.19233417,.00099259,97.4469,249.9952,62.7988,297.4257,0,U,41599,999,55707,.99586155E-4,.2032E-4,0
