ALOS-2                  
1 39766U 14029A   26190.25511495  .00000733  00000+0  10498-3 0  9994
2 39766  97.9221 287.1037 0001626  92.9652 267.1746 14.79473760654847
KAZEOSAT 2              
1 40010U 14033A   26190.32404135  .00000750  00000+0  92670-4 0  9995
2 40010  97.5406  28.7655 0006998 242.5613 117.4892 14.85497773652242
HODOYOSHI-4             
1 40011U 14033B   26190.29019069  .00000545  00000+0  64598-4 0  9990
2 40011  97.5467  14.0470 0022194 230.1896 129.7368 14.88180342652096
DEIMOS-2                
1 40013U 14033D   26190.28885759  .00000585  00000+0  60285-4 0  9991
2 40013  97.5807  63.9988 0001099  82.4063 277.7282 14.93788890641026
HODOYOSHI-3             
1 40015U 14033F   26189.94320886  .00000629  00000+0  78533-4 0  9993
2 40015  97.6439 352.1110 0031325 283.5087  76.2639 14.85429279650858
SPOT 7                  
1 40053U 14034A   26190.30339101  .00000298  00000+0  70116-4 0  9999
2 40053  98.0616 252.2245 0001538  98.1698 261.9678 14.60978157640360
SKYSAT-B                
1 40072U 14037D   26190.31517603  .00000919  00000+0  10666-3 0  9992
2 40072  98.3850 150.5437 0005102 192.3178 167.7912 14.88083155649254
WORLDVIEW-3 (WV-3)      
1 40115U 14048A   26190.26785057  .00000575  00000+0  73603-4 0  9995
2 40115  97.8558 264.7954 0000829 164.3855 195.7385 14.85058517645189
GAOFEN-2                
1 40118U 14049A   26190.33837176  .00000721  00000+0  10014-3 0  9996
2 40118  98.0096 254.5237 0007868 151.6249 208.5393 14.80924302642514
YAOGAN-21               
1 40143U 14053A   26190.31854836  .00005387  00000+0  20755-3 0  9995
2 40143  97.1467 229.6068 0008427  27.3179 332.8502 15.26706426658338
YAOGAN-22               
1 40275U 14063A   26189.93628709 -.00000029  00000+0  46042-4 0  9993
2 40275 100.7753 341.5732 0006775 138.1586 222.0044 13.15531434562675
ASNARO                  
1 40298U 14070A   26190.28457456  .00005146  00000+0  24350-3 0  9996
2 40298  97.3442 265.8042 0006714 104.2560 255.9422 15.19771787647365
YAOGAN-24               
1 40310U 14072A   26190.31549911 -.00000066  00000+0 -18867-5 0  9991
2 40310  98.1516 327.8417 0014126 188.6043 171.4926 14.76112624626981
CBERS 4                 
1 40336U 14079A   26190.34178731  .00000170  00000+0  73907-4 0  9996
2 40336  98.3519 246.4774 0001038  50.0564 310.0713 14.35515531607134
YAOGAN-26               
1 40362U 14088A   26190.30871939  .00022841  00000+0  43383-3 0  9994
2 40362  97.0649 190.0129 0002850  11.0805 349.0508 15.48279933641128
SMAP                    
1 40376U 15003A   26190.30206182  .00000286  00000+0  64423-4 0  9997
2 40376  98.1280 197.0836 0001549  96.8898 263.2480 14.63386010610858
KOMPSAT-3A              
1 40536U 15014A   26190.25631458  .00023057  00000+0  31920-3 0  9995
2 40536  97.6892 183.2500 0056752  96.5428 264.2290 15.55168323625242
SENTINEL-2A             
1 40697U 15028A   26190.31258375 -.00000253  00000+0 -79989-4 0  9991
2 40697  98.5674 264.8498 0001291  93.8371 266.2960 14.30813637576894
GAOFEN-8                
1 40701U 15030A   26190.28340726  .00009128  00000+0  18383-3 0  9996
2 40701  97.6908  24.9918 0009851 113.7964 246.4318 15.46779982614861
CARBONITE 1 (CBNT-1)    
1 40718U 15032D   26190.30420295  .00000664  00000+0  86516-4 0  9999
2 40718  97.6523   7.4462 0013432 217.6133 142.4143 14.83654132592623
YAOGAN-27               
1 40878U 15040A   26190.30265321  .00000390  00000+0  11394-2 0  9998
2 40878 100.1169 175.7263 0008376 158.0658 202.0816 13.16073452520575
GAOFEN-9 01             
1 40894U 15047A   26190.26242814  .00000725  00000+0  94979-4 0  9994
2 40894  97.6271 224.9533 0028759  69.0450 291.3838 14.82927790583461
YAOGAN-28               
1 41026U 15064A   26190.33281024  .00004778  00000+0  17882-3 0  9994
2 41026  97.3095 328.1506 0012014 111.0613 249.1912 15.27710913594062
YAOGAN-29               
1 41038U 15069A   26190.30720941  .00000714  00000+0  94298-4 0  9998
2 41038  98.0024 218.9741 0001189  21.6016 338.5248 14.83104568573905
KENT RIDGE 1            
1 41167U 15077B   26190.03476363  .00002877  00000+0  86582-4 0  9995
2 41167  14.9792 103.4855 0008222 188.2047 171.8141 15.23261698584433
GAOFEN-4                
1 41194U 15083A   26190.30449299 -.00000321  00000+0  00000+0 0  9999
2 41194   0.4109  83.8795 0004365 118.7598 299.9257  1.00270249 38753
JASON-3                 
1 41240U 16002A   26190.29402654 -.00000024  00000+0  15030-3 0  9998
2 41240  66.0418  79.3595 0008249 271.4583  88.5490 12.87628365490093
SENTINEL-3A             
1 41335U 16011A   26190.30747698  .00000052  00000+0  39436-4 0  9992
2 41335  98.6239 257.3724 0001398  92.0212 268.1129 14.26738722541216
ZIYUAN 3-02 (ZY 3-02)   
1 41556U 16033A   26190.29027591  .00003846  00000+0  17417-3 0  9990
2 41556  97.3828 265.6394 0013441 205.9322 154.1242 15.21397268561343
CARTOSAT-2C             
1 41599U 16040A   26190.32275100  .00002032  00000+0  99586-4 0  9994
2 41599  97.4469 249.9952 0009925  62.7988 297.4257 15.19233417557070
